[{"OBJECT_NAME":"STARLINK-35987","OBJECT_ID":"2025-281N","EPOCH":"2026-03-09T03:23:11.280192","MEAN_MOTION":15.2755869,"ECCENTRICITY":0.00017664,"INCLINATION":43.003,"RA_OF_ASC_NODE":346.3973,"ARG_OF_PERICENTER":282.2881,"MEAN_ANOMALY":77.7773,"EPHEMERIS_TYPE":0,"CLASSIFICATION_TYPE":"U","NORAD_CAT_ID":66860,"ELEMENT_SET_NO":999,"REV_AT_EPOCH":1610,"BSTAR":0.0013311338,"MEAN_MOTION_DOT":0.00036526,"MEAN_MOTION_DDOT":0},{"OBJECT_NAME":"CZ-2C R\/B","OBJECT_ID":"2017-085D","EPOCH":"2026-03-09T07:36:19.955232","MEAN_MOTION":15.36259494,"ECCENTRICITY":0.00550258,"INCLINATION":34.6583,"RA_OF_ASC_NODE":163.0948,"ARG_OF_PERICENTER":204.4819,"MEAN_ANOMALY":155.3278,"EPHEMERIS_TYPE":0,"CLASSIFICATION_TYPE":"U","NORAD_CAT_ID":43084,"ELEMENT_SET_NO":999,"REV_AT_EPOCH":45326,"BSTAR":0.00049058122,"MEAN_MOTION_DOT":0.00018774,"MEAN_MOTION_DDOT":0}]
